CCSDS_OMM_VERS = 2.0
CREATION_DATE  = 
ORIGINATOR     = 

OBJECT_NAME    = KUIPER-00270
OBJECT_ID      = 2026-030AD
CENTER_NAME    = EARTH
REF_FRAME      = TEME
TIME_SYSTEM    = UTC
MEAN_ELEMENT_THEORY = SGP/SGP4

EPOCH          = 2026-02-25T19:05:20.622048
MEAN_MOTION    = 15.34106398
ECCENTRICITY   = .0009903
INCLINATION    = 51.8822
RA_OF_ASC_NODE = 276.5940
ARG_OF_PERICENTER = 22.1368
MEAN_ANOMALY   = 338.0043

EPHEMERIS_TYPE = 0
CLASSIFICATION_TYPE = U
NORAD_CAT_ID   = 67791
ELEMENT_SET_NO = 999
REV_AT_EPOCH   = 326
BSTAR          = .51142E-3
MEAN_MOTION_DOT = .16817E-3
MEAN_MOTION_DDOT = 0

CCSDS_OMM_VERS = 2.0
CREATION_DATE  = 
ORIGINATOR     = 

OBJECT_NAME    = KUIPER-00274
OBJECT_ID      = 2026-030AE
CENTER_NAME    = EARTH
REF_FRAME      = TEME
TIME_SYSTEM    = UTC
MEAN_ELEMENT_THEORY = SGP/SGP4

EPOCH          = 2026-02-25T19:24:20.314944
MEAN_MOTION    = 15.32226415
ECCENTRICITY   = .0017252
INCLINATION    = 51.8839
RA_OF_ASC_NODE = 276.6818
ARG_OF_PERICENTER = 33.7696
MEAN_ANOMALY   = 326.4384

EPHEMERIS_TYPE = 0
CLASSIFICATION_TYPE = U
NORAD_CAT_ID   = 67792
ELEMENT_SET_NO = 999
REV_AT_EPOCH   = 326
BSTAR          = .21994E-3
MEAN_MOTION_DOT = .6603E-4
MEAN_MOTION_DDOT = 0

CCSDS_OMM_VERS = 2.0
CREATION_DATE  = 
ORIGINATOR     = 

OBJECT_NAME    = KUIPER-00275
OBJECT_ID      = 2026-030AF
CENTER_NAME    = EARTH
REF_FRAME      = TEME
TIME_SYSTEM    = UTC
MEAN_ELEMENT_THEORY = SGP/SGP4

EPOCH          = 2026-02-25T19:02:07.703808
MEAN_MOTION    = 15.34344343
ECCENTRICITY   = .0008356
INCLINATION    = 51.8856
RA_OF_ASC_NODE = 276.5860
ARG_OF_PERICENTER = 19.8056
MEAN_ANOMALY   = 340.3253

EPHEMERIS_TYPE = 0
CLASSIFICATION_TYPE = U
NORAD_CAT_ID   = 67793
ELEMENT_SET_NO = 999
REV_AT_EPOCH   = 326
BSTAR          = -.33378E-3
MEAN_MOTION_DOT = -.11646E-3
MEAN_MOTION_DDOT = 0

CCSDS_OMM_VERS = 2.0
CREATION_DATE  = 
ORIGINATOR     = 

OBJECT_NAME    = KUIPER-00276
OBJECT_ID      = 2026-030AG
CENTER_NAME    = EARTH
REF_FRAME      = TEME
TIME_SYSTEM    = UTC
MEAN_ELEMENT_THEORY = SGP/SGP4

EPOCH          = 2026-02-25T19:28:45.029856
MEAN_MOTION    = 15.31607751
ECCENTRICITY   = .0018333
INCLINATION    = 51.8829
RA_OF_ASC_NODE = 276.7006
ARG_OF_PERICENTER = 29.9776
MEAN_ANOMALY   = 330.2254

EPHEMERIS_TYPE = 0
CLASSIFICATION_TYPE = U
NORAD_CAT_ID   = 67794
ELEMENT_SET_NO = 999
REV_AT_EPOCH   = 326
BSTAR          = .80089E-3
MEAN_MOTION_DOT = .24637E-3
MEAN_MOTION_DDOT = 0

CCSDS_OMM_VERS = 2.0
CREATION_DATE  = 
ORIGINATOR     = 

OBJECT_NAME    = KUIPER-00279
OBJECT_ID      = 2026-030AH
CENTER_NAME    = EARTH
REF_FRAME      = TEME
TIME_SYSTEM    = UTC
MEAN_ELEMENT_THEORY = SGP/SGP4

EPOCH          = 2026-02-25T18:57:00.160416
MEAN_MOTION    = 15.34813815
ECCENTRICITY   = .0006119
INCLINATION    = 51.8808
RA_OF_ASC_NODE = 276.5557
ARG_OF_PERICENTER = 17.1005
MEAN_ANOMALY   = 343.0186

EPHEMERIS_TYPE = 0
CLASSIFICATION_TYPE = U
NORAD_CAT_ID   = 67795
ELEMENT_SET_NO = 999
REV_AT_EPOCH   = 326
BSTAR          = .51459E-3
MEAN_MOTION_DOT = .17301E-3
MEAN_MOTION_DDOT = 0

CCSDS_OMM_VERS = 2.0
CREATION_DATE  = 
ORIGINATOR     = 

OBJECT_NAME    = CREW DRAGON 12
OBJECT_ID      = 2026-031A
CENTER_NAME    = EARTH
REF_FRAME      = TEME
TIME_SYSTEM    = UTC
MEAN_ELEMENT_THEORY = SGP/SGP4

EPOCH          = 2026-02-25T13:45:55.251360
MEAN_MOTION    = 15.48286925
ECCENTRICITY   = .00083472
INCLINATION    = 51.6319
RA_OF_ASC_NODE = 132.2502
ARG_OF_PERICENTER = 132.4308
MEAN_ANOMALY   = 227.7387

EPHEMERIS_TYPE = 0
CLASSIFICATION_TYPE = U
NORAD_CAT_ID   = 67796
ELEMENT_SET_NO = 999
REV_AT_EPOCH   = 55442
BSTAR          = .18599678E-3
MEAN_MOTION_DOT = .9568E-4
MEAN_MOTION_DDOT = 0

CCSDS_OMM_VERS = 2.0
CREATION_DATE  = 
ORIGINATOR     = 

OBJECT_NAME    = STARLINK-36800
OBJECT_ID      = 2026-032A
CENTER_NAME    = EARTH
REF_FRAME      = TEME
TIME_SYSTEM    = UTC
MEAN_ELEMENT_THEORY = SGP/SGP4

EPOCH          = 2026-02-23T16:00:03.000096
MEAN_MOTION    = 15.90904989
ECCENTRICITY   = .0001284
INCLINATION    = 97.2870
RA_OF_ASC_NODE = 240.3960
ARG_OF_PERICENTER = 80.0984
MEAN_ANOMALY   = 214.9156

EPHEMERIS_TYPE = 0
CLASSIFICATION_TYPE = U
NORAD_CAT_ID   = 67797
ELEMENT_SET_NO = 999
REV_AT_EPOCH   = 252
BSTAR          = -.60359E-2
MEAN_MOTION_DOT = -.1862359E-1
MEAN_MOTION_DDOT = .94321E-3

CCSDS_OMM_VERS = 2.0
CREATION_DATE  = 
ORIGINATOR     = 

OBJECT_NAME    = STARLINK-36798
OBJECT_ID      = 2026-032B
CENTER_NAME    = EARTH
REF_FRAME      = TEME
TIME_SYSTEM    = UTC
MEAN_ELEMENT_THEORY = SGP/SGP4

EPOCH          = 2026-02-23T16:00:03.000096
MEAN_MOTION    = 15.91097752
ECCENTRICITY   = .0001244
INCLINATION    = 97.2865
RA_OF_ASC_NODE = 240.3974
ARG_OF_PERICENTER = 75.9154
MEAN_ANOMALY   = 222.8269

EPHEMERIS_TYPE = 0
CLASSIFICATION_TYPE = U
NORAD_CAT_ID   = 67798
ELEMENT_SET_NO = 999
REV_AT_EPOCH   = 246
BSTAR          = -.59881E-2
MEAN_MOTION_DOT = -.1865731E-1
MEAN_MOTION_DDOT = .94824E-3

CCSDS_OMM_VERS = 2.0
CREATION_DATE  = 
ORIGINATOR     = 

OBJECT_NAME    = STARLINK-36804
OBJECT_ID      = 2026-032C
CENTER_NAME    = EARTH
REF_FRAME      = TEME
TIME_SYSTEM    = UTC
MEAN_ELEMENT_THEORY = SGP/SGP4

EPOCH          = 2026-02-23T16:00:03.000096
MEAN_MOTION    = 15.91296785
ECCENTRICITY   = .0001357
INCLINATION    = 97.2863
RA_OF_ASC_NODE = 240.3994
ARG_OF_PERICENTER = 75.3637
MEAN_ANOMALY   = 227.4376

EPHEMERIS_TYPE = 0
CLASSIFICATION_TYPE = U
NORAD_CAT_ID   = 67799
ELEMENT_SET_NO = 999
REV_AT_EPOCH   = 246
BSTAR          = -.58889E-2
MEAN_MOTION_DOT = -.1853662E-1
MEAN_MOTION_DDOT = .93869E-3

CCSDS_OMM_VERS = 2.0
CREATION_DATE  = 
ORIGINATOR     = 

OBJECT_NAME    = STARLINK-36354
OBJECT_ID      = 2026-032D
CENTER_NAME    = EARTH
REF_FRAME      = TEME
TIME_SYSTEM    = UTC
MEAN_ELEMENT_THEORY = SGP/SGP4

EPOCH          = 2026-02-23T16:00:03.000096
MEAN_MOTION    = 15.91455237
ECCENTRICITY   = .000123
INCLINATION    = 97.2866
RA_OF_ASC_NODE = 240.4012
ARG_OF_PERICENTER = 78.0847
MEAN_ANOMALY   = 227.8964

EPHEMERIS_TYPE = 0
CLASSIFICATION_TYPE = U
NORAD_CAT_ID   = 67800
ELEMENT_SET_NO = 999
REV_AT_EPOCH   = 252
BSTAR          = -.58406E-2
MEAN_MOTION_DOT = -.1853319E-1
MEAN_MOTION_DDOT = .93987E-3

CCSDS_OMM_VERS = 2.0
CREATION_DATE  = 
ORIGINATOR     = 

OBJECT_NAME    = STARLINK-36773
OBJECT_ID      = 2026-032E
CENTER_NAME    = EARTH
REF_FRAME      = TEME
TIME_SYSTEM    = UTC
MEAN_ELEMENT_THEORY = SGP/SGP4

EPOCH          = 2026-02-23T16:00:03.000096
MEAN_MOTION    = 15.91618581
ECCENTRICITY   = .0001305
INCLINATION    = 97.2859
RA_OF_ASC_NODE = 240.4020
ARG_OF_PERICENTER = 74.0978
MEAN_ANOMALY   = 235.2493

EPHEMERIS_TYPE = 0
CLASSIFICATION_TYPE = U
NORAD_CAT_ID   = 67801
ELEMENT_SET_NO = 999
REV_AT_EPOCH   = 246
BSTAR          = -.57675E-2
MEAN_MOTION_DOT = -.1845584E-1
MEAN_MOTION_DDOT = .9341E-3

CCSDS_OMM_VERS = 2.0
CREATION_DATE  = 
ORIGINATOR     = 

OBJECT_NAME    = STARLINK-36739
OBJECT_ID      = 2026-032F
CENTER_NAME    = EARTH
REF_FRAME      = TEME
TIME_SYSTEM    = UTC
MEAN_ELEMENT_THEORY = SGP/SGP4

EPOCH          = 2026-02-23T16:00:03.000096
MEAN_MOTION    = 15.91958078
ECCENTRICITY   = .0001263
INCLINATION    = 97.2856
RA_OF_ASC_NODE = 240.4047
ARG_OF_PERICENTER = 71.9201
MEAN_ANOMALY   = 244.1424

EPHEMERIS_TYPE = 0
CLASSIFICATION_TYPE = U
NORAD_CAT_ID   = 67802
ELEMENT_SET_NO = 999
REV_AT_EPOCH   = 252
BSTAR          = -.56745E-2
MEAN_MOTION_DOT = -.1847603E-1
MEAN_MOTION_DDOT = .93924E-3

